ZHONGXING-2E            
1 49062U 21071A   26193.50649404 -.00000290  00000+0  00000+0 0  9995
2 49062   0.0627 234.3360 0001146 272.4206  64.0461  1.00271510 18292
TJS-7                   
1 49115U 21077A   26193.61458088 -.00000123  00000+0  00000+0 0  9993
2 49115   0.2932 264.1042 0003018 108.0081  40.1358  1.00269453  9805
CHINASAT 9B             
1 49125U 21080A   26193.65434035 -.00000312  00000+0  00000+0 0  9998
2 49125   0.0268  86.6496 0002127  60.7110 120.1581  1.00269685 17907
SHIJIAN-21 (SJ-21)      
1 49330U 21094A   26193.65390060 -.00000352  00000+0  00000+0 0  9994
2 49330   5.1708  61.0221 0051707 168.9332  63.8238  1.00279125  5615
SES-17                  
1 49332U 21095A   26193.47843336 -.00000271  00000+0  00000+0 0  9996
2 49332   0.0234  45.4112 0000757  73.7240 276.3645  1.00268510 18107
SYRACUSE 4A             
1 49333U 21095B   26193.50070679  .00000000  00000+0  00000+0 0  9992
2 49333   0.0255  47.2997 0001435  61.9590  46.9002  1.00270113 18204
QZS-1R (MICHIBIKI-1R)   
1 49336U 21096A   26191.59113988 -.00000288  00000+0  00000+0 0  9993
2 49336  37.5070  79.2376 0754836 272.1562 282.0570  1.00246773 17249
ZHONGXING-1D            
1 49505U 21114A   26193.66006037 -.00000336  00000+0  00000+0 0  9992
2 49505   0.0482 231.9337 0000555  32.5565  33.8707  1.00269709 17075
STPSAT-6                
1 49817U 21118A   26193.46950664 -.00000044  00000+0  00000+0 0  9990
2 49817   0.3835  85.1170 0000990 237.7892  24.7055  1.00269815 16820
EXPRESS AMU-7           
1 50001U 21123A   26193.52038062 -.00000243  00000+0  00000+0 0  9990
2 50001   0.0340 276.9888 0000411 319.4843  26.2641  1.00265414 16798
EXPRESS AMU-3           
1 50002U 21123B   26192.90915909  .00000000  00000+0  00000+0 0  9996
2 50002   0.0157   5.9080 0000192 350.9192   3.1727  1.00269658  7289
TIANLIAN 2-02           
1 50005U 21124A   26193.59681412 -.00000015  00000+0  00000+0 0  9992
2 50005   0.8636  85.7315 0001562 162.7643  67.8113  1.00270384 16870
TURKSAT 5B              
1 50212U 21126A   26193.50001346  .00000147  00000+0  00000+0 0  9992
2 50212   0.0701 338.4573 0002525  12.3621 161.5749  1.00271795 16554
INMARSAT 6-F1           
1 50319U 21128A   26193.43694422 -.00000170  00000+0  00000+0 0  9994
2 50319   0.0152 331.5288 0000222 261.9701 297.8775  1.00271461 16510
SHIYAN-12 01 (SY-12 01) 
1 50321U 21129A   26192.70861875  .00000152  00000+0  00000+0 0  9994
2 50321   3.7350  79.5804 0002599 284.7123 220.4704  1.00049347 16741
SHIYAN-12 02 (SY-12 02) 
1 50322U 21129B   26192.76690971 -.00000356  00000+0  00000+0 0  9995
2 50322   3.7342  79.5798 0003034  70.3598 163.6304  1.00478973 16740
TJS-9                   
1 50574U 21135A   26193.66144704 -.00000298  00000+0  00000+0 0  9994
2 50574   0.0411 108.7307 0002274 318.9656 238.2056  1.00273510 16684
GOES 18                 
1 51850U 22021A   26193.49142001  .00000098  00000+0  00000+0 0  9993
2 51850   0.0194 106.7622 0000626  89.5252 134.0088  1.00272836  6845
ZHONGXING-6D            
1 52255U 22038A   26192.84775090 -.00000349  00000+0  00000+0 0  9999
2 52255   0.0340 243.2125 0000526 282.5518 194.2309  1.00273816 15676
NILESAT 301             
1 52817U 22061A   26193.37128148 -.00000056  00000+0  00000+0 0  9999
2 52817   0.0468 348.6398 0003534  89.7469 338.5781  1.00269166 14980
CMS-02 (GSAT-24)        
1 52903U 22067A   26193.43685756 -.00000163  00000+0  00000+0 0  9990
2 52903   0.0164  96.9187 0000670 249.7448 183.9308  1.00271758 14865
MEASAT 3D               
1 52904U 22067B   26193.51942179 -.00000241  00000+0  00000+0 0  9992
2 52904   0.0501 304.9335 0000657  69.5240 194.4487  1.00272031 14906
SES-22                  
1 52933U 22071A   26193.49142001  .00000106  00000+0  00000+0 0  9991
2 52933   0.0153 345.9815 0000776 117.6096 224.6813  1.00270318  7777
WFOV (USA 332)          
1 52940U 22073A   26193.51527609 -.00000365  00000+0  00000+0 0  9993
2 52940   3.7731  78.2076 0001538 214.6797 302.3164  1.00268590 14629
TIANLIAN 2-03           
1 53100U 22078A   26193.35117272  .00000073  00000+0  00000+0 0  9995
2 53100   0.7334  77.4514 0000900   2.5598 347.2795  1.00273329 14799
SBIRS GEO-6 (USA 336)   
1 53355U 22092A   26193.51925396 -.00000286  00000+0  00000+0 0  9992
2 53355   3.2162 317.8980 0001643 153.2061 145.2422  1.00270951 14487
EUTELSAT KONNECT VHTS   
1 53765U 22110A   26193.37128148  .00000018  00000+0  00000+0 0  9994
2 53765   0.0565  98.9771 0002617 346.2538 341.3903  1.00269107  7086
ZHONGXING-1E            
1 53813U 22112A   26193.65035366 -.00000149  00000+0  00000+0 0  9996
2 53813   0.0668 231.5588 0000930  51.2139 323.2780  1.00272705 14102
SES-20                  
1 53960U 22123A   26193.45531037 -.00000100  00000+0  00000+0 0  9992
2 53960   0.0168  63.9233 0001720  28.4501 258.7825  1.00269407 13781
SES-21                  
1 53961U 22123B   26193.52864201  .00000000  00000+0  00000+0 0  9991
2 53961   0.0381  32.9972 0001369  81.5623 235.2562  1.00275765  7469
GALAXY 33 (G-33)        
1 54026U 22128A   26193.52891979  .00000080  00000+0  00000+0 0  9999
2 54026   0.0056  39.7853 0001753  79.8928 228.1495  1.00271214 13995
GALAXY 34 (G-34)        
1 54027U 22128B   26193.46612662  .00000000  00000+0  00000+0 0  9995
2 54027   0.0236  14.4132 0001411 108.1241 206.6250  1.00273746 14163
