OBJECT_NAME,OBJECT_ID,EPOCH,MEAN_MOTION,ECCENTRICITY,INCLINATION,RA_OF_ASC_NODE,ARG_OF_PERICENTER,MEAN_ANOMALY,EPHEMERIS_TYPE,CLASSIFICATION_TYPE,NORAD_CAT_ID,ELEMENT_SET_NO,REV_AT_EPOCH,BSTAR,MEAN_MOTION_DOT,MEAN_MOTION_DDOT
ZHONGXING-2E,2021-071A,2026-07-12T12:09:21.085056,1.00271510,.00011463,0.0627,234.3360,272.4206,64.0461,0,U,49062,999,1829,0,-.29E-5,0
TJS-7,2021-077A,2026-07-12T14:44:59.788032,1.00269453,.00030184,0.2932,264.1042,108.0081,40.1358,0,U,49115,999,980,0,-.123E-5,0
CHINASAT 9B,2021-080A,2026-07-12T15:42:15.006240,1.00269685,.0002127,0.0268,86.6496,60.7110,120.1581,0,U,49125,999,1790,0,-.312E-5,0
SHIJIAN-21 (SJ-21),2021-094A,2026-07-12T15:41:37.011840,1.00279125,.00517074,5.1708,61.0221,168.9332,63.8238,0,U,49330,999,561,0,-.352E-5,0
SES-17,2021-095A,2026-07-12T11:28:56.642304,1.00268510,.00007574,0.0234,45.4112,73.7240,276.3645,0,U,49332,999,1810,0,-.271E-5,0
SYRACUSE 4A,2021-095B,2026-07-12T12:01:01.066656,1.00270113,.00014356,0.0255,47.2997,61.9590,46.9002,0,U,49333,999,1820,0,0,0
QZS-1R (MICHIBIKI-1R),2021-096A,2026-07-10T14:11:14.485632,1.00246773,.07548364,37.5070,79.2376,272.1562,282.0570,0,U,49336,999,1724,0,-.288E-5,0
ZHONGXING-1D,2021-114A,2026-07-12T15:50:29.215968,1.00269709,.00005559,0.0482,231.9337,32.5565,33.8707,0,U,49505,999,1707,0,-.336E-5,0
STPSAT-6,2021-118A,2026-07-12T11:16:05.373696,1.00269815,.00009909,0.3835,85.1170,237.7892,24.7055,0,U,49817,999,1682,0,-.44E-6,0
EXPRESS AMU-7,2021-123A,2026-07-12T12:29:20.885568,1.00265414,.00004118,0.0340,276.9888,319.4843,26.2641,0,U,50001,999,1679,0,-.243E-5,0
EXPRESS AMU-3,2021-123B,2026-07-11T21:49:11.345376,1.00269658,.0000192,0.0157,5.9080,350.9192,3.1727,0,U,50002,999,728,0,0,0
TIANLIAN 2-02,2021-124A,2026-07-12T14:19:24.739968,1.00270384,.00015629,0.8636,85.7315,162.7643,67.8113,0,U,50005,999,1687,0,-.15E-6,0
TURKSAT 5B,2021-126A,2026-07-12T12:00:01.162944,1.00271795,.00025254,0.0701,338.4573,12.3621,161.5749,0,U,50212,999,1655,0,.147E-5,0
INMARSAT 6-F1,2021-128A,2026-07-12T10:29:11.980608,1.00271461,.00002222,0.0152,331.5288,261.9701,297.8775,0,U,50319,999,1651,0,-.17E-5,0
SHIYAN-12 01 (SY-12 01),2021-129A,2026-07-11T17:00:24.660000,1.00049347,.0002599,3.7350,79.5804,284.7123,220.4704,0,U,50321,999,1674,0,.152E-5,0
SHIYAN-12 02 (SY-12 02),2021-129B,2026-07-11T18:24:20.998944,1.00478973,.0003034,3.7342,79.5798,70.3598,163.6304,0,U,50322,999,1674,0,-.356E-5,0
TJS-9,2021-135A,2026-07-12T15:52:29.024256,1.00273510,.00022747,0.0411,108.7307,318.9656,238.2056,0,U,50574,999,1668,0,-.298E-5,0
GOES 18,2022-021A,2026-07-12T11:47:38.688864,1.00272836,.00006262,0.0194,106.7622,89.5252,134.0088,0,U,51850,999,684,0,.98E-6,0
ZHONGXING-6D,2022-038A,2026-07-11T20:20:45.677760,1.00273816,.00005264,0.0340,243.2125,282.5518,194.2309,0,U,52255,999,1567,0,-.349E-5,0
NILESAT 301,2022-061A,2026-07-12T08:54:38.719872,1.00269166,.0003534,0.0468,348.6398,89.7469,338.5781,0,U,52817,999,1498,0,-.56E-6,0
CMS-02 (GSAT-24),2022-067A,2026-07-12T10:29:04.493184,1.00271758,.000067,0.0164,96.9187,249.7448,183.9308,0,U,52903,999,1486,0,-.163E-5,0
MEASAT 3D,2022-067B,2026-07-12T12:27:58.042656,1.00272031,.00006575,0.0501,304.9335,69.5240,194.4487,0,U,52904,999,1490,0,-.241E-5,0
SES-22,2022-071A,2026-07-12T11:47:38.688864,1.00270318,.00007765,0.0153,345.9815,117.6096,224.6813,0,U,52933,999,777,0,.106E-5,0
WFOV (USA 332),2022-073A,2026-07-12T12:21:59.854176,1.00268590,.00015385,3.7731,78.2076,214.6797,302.3164,0,U,52940,999,1462,0,-.365E-5,0
TIANLIAN 2-03,2022-078A,2026-07-12T08:25:41.323008,1.00273329,.00009003,0.7334,77.4514,2.5598,347.2795,0,U,53100,999,1479,0,.73E-6,0
SBIRS GEO-6 (USA 336),2022-092A,2026-07-12T12:27:43.542144,1.00270951,.00016432,3.2162,317.8980,153.2061,145.2422,0,U,53355,999,1448,0,-.286E-5,0
EUTELSAT KONNECT VHTS,2022-110A,2026-07-12T08:54:38.719872,1.00269107,.00026178,0.0565,98.9771,346.2538,341.3903,0,U,53765,999,708,0,.18E-6,0
ZHONGXING-1E,2022-112A,2026-07-12T15:36:30.556224,1.00272705,.00009301,0.0668,231.5588,51.2139,323.2780,0,U,53813,999,1410,0,-.149E-5,0
SES-20,2022-123A,2026-07-12T10:55:38.815968,1.00269407,.00017208,0.0168,63.9233,28.4501,258.7825,0,U,53960,999,1378,0,-.1E-5,0
SES-21,2022-123B,2026-07-12T12:41:14.669664,1.00275765,.0001369,0.0381,32.9972,81.5623,235.2562,0,U,53961,999,746,0,0,0
GALAXY 33 (G-33),2022-128A,2026-07-12T12:41:38.669856,1.00271214,.00017538,0.0056,39.7853,79.8928,228.1495,0,U,54026,999,1399,0,.8E-6,0
GALAXY 34 (G-34),2022-128B,2026-07-12T11:11:13.339968,1.00273746,.00014114,0.0236,14.4132,108.1241,206.6250,0,U,54027,999,1416,0,0,0
